{"type": "FeatureCollection", "features": [ {"type": "Feature", "properties": {"norad_id": 67101, "name": "STARLINK-36200", "group": "last-30-days", "lat": -50.984543817742114, "lon": 60.40397071940541, "alt_km": 335.49761740211125, "timestamp": "2025-12-25T11:37:43.137028+00:00", "meta": {"OBJECT_NAME": "STARLINK-36200", "OBJECT_ID": "2025-298AC", "EPOCH": "2025-12-25T04:00:01.998720", "MEAN_MOTION": 15.80988267, "ECCENTRICITY": 0.0003724, "INCLINATION": 69.996, "RA_OF_ASC_NODE": 214.5902, "ARG_OF_PERICENTER": 269.8614, "MEAN_ANOMALY": 318.1533, "EPHEMERIS_TYPE": 0, "CLASSIFICATION_TYPE": "U", "NORAD_CAT_ID": 67101, "ELEMENT_SET_NO": 999, "REV_AT_EPOCH": 297, "BSTAR": -0.010307, "MEAN_MOTION_DOT": -0.01735723, "MEAN_MOTION_DDOT": 0}, "tle": {"line1": "1 67101U 25298AC  25359.16668980 -.01735723  00000+0 -10307-1 0  9990", "line2": "2 67101  69.9960 214.5902 0003724 269.8614 318.1533 15.80988267  2977"}}, "geometry": {"type": "Point", "coordinates": [60.40397071940541, -50.984543817742114]}}, {"type": "Feature", "properties": {"norad_id": 67102, "name": "STARLINK-36255", "group": "last-30-days", "lat": 39.295738830412084, "lon": -2.8803826388618545, "alt_km": 317.3916684635269, "timestamp": "2025-12-25T11:37:43.137040+00:00", "meta": {"OBJECT_NAME": "STARLINK-36255", "OBJECT_ID": "2025-299A", "EPOCH": "2025-12-25T04:00:01.998720", "MEAN_MOTION": 15.84085087, "ECCENTRICITY": 0.0001735, "INCLINATION": 42.9968, "RA_OF_ASC_NODE": 240.5147, "ARG_OF_PERICENTER": 274.591, "MEAN_ANOMALY": 183.0403, "EPHEMERIS_TYPE": 0, "CLASSIFICATION_TYPE": "U", "NORAD_CAT_ID": 67102, "ELEMENT_SET_NO": 999, "REV_AT_EPOCH": 280, "BSTAR": -0.0085615, "MEAN_MOTION_DOT": -0.01721409, "MEAN_MOTION_DDOT": 0}, "tle": {"line1": "1 67102U 25299A   25359.16668980 -.01721409  00000+0 -85615-2 0  9993", "line2": "2 67102  42.9968 240.5147 0001735 274.5910 183.0403 15.84085087  2808"}}, "geometry": {"type": "Point", "coordinates": [-2.8803826388618545, 39.295738830412084]}}, {"type": "Feature", "properties": {"norad_id": 67103, "name": "STARLINK-36256", "group": "last-30-days", "lat": 38.850549832148396, "lon": -1.2668419328248401, "alt_km": 317.37929525315394, "timestamp": "2025-12-25T11:37:43.137050+00:00", "meta": {"OBJECT_NAME": "STARLINK-36256", "OBJECT_ID": "2025-299B", "EPOCH": "2025-12-25T04:00:01.998720", "MEAN_MOTION": 15.84105214, "ECCENTRICITY": 0.000165, "INCLINATION": 42.9968, "RA_OF_ASC_NODE": 240.5116, "ARG_OF_PERICENTER": 281.1112, "MEAN_ANOMALY": 177.8249, "EPHEMERIS_TYPE": 0, "CLASSIFICATION_TYPE": "U", "NORAD_CAT_ID": 67103, "ELEMENT_SET_NO": 999, "REV_AT_EPOCH": 280, "BSTAR": -0.0085595, "MEAN_MOTION_DOT": -0.01722428, "MEAN_MOTION_DDOT": 0}, "tle": {"line1": "1 67103U 25299B   25359.16668980 -.01722428  00000+0 -85595-2 0  9993", "line2": "2 67103  42.9968 240.5116 0001650 281.1112 177.8249 15.84105214  2803"}}, "geometry": {"type": "Point", "coordinates": [-1.2668419328248401, 38.850549832148396]}}, {"type": "Feature", "properties": {"norad_id": 67104, "name": "STARLINK-36258", "group": "last-30-days", "lat": 38.32580800240602, "lon": 0.5156689696850729, "alt_km": 317.48061070835047, "timestamp": "2025-12-25T11:37:43.137060+00:00", "meta": {"OBJECT_NAME": "STARLINK-36258", "OBJECT_ID": "2025-299C", "EPOCH": "2025-12-25T04:00:01.998720", "MEAN_MOTION": 15.84119698, "ECCENTRICITY": 0.0001768, "INCLINATION": 42.9968, "RA_OF_ASC_NODE": 240.5078, "ARG_OF_PERICENTER": 278.027, "MEAN_ANOMALY": 182.3849, "EPHEMERIS_TYPE": 0, "CLASSIFICATION_TYPE": "U", "NORAD_CAT_ID": 67104, "ELEMENT_SET_NO": 999, "REV_AT_EPOCH": 280, "BSTAR": -0.00856, "MEAN_MOTION_DOT": -0.01723659, "MEAN_MOTION_DDOT": 0}, "tle": {"line1": "1 67104U 25299C   25359.16668980 -.01723659  00000+0 -85600-2 0  9998", "line2": "2 67104  42.9968 240.5078 0001768 278.0270 182.3849 15.84119698  2809"}}, "geometry": {"type": "Point", "coordinates": [0.5156689696850729, 38.32580800240602]}}, {"type": "Feature", "properties": {"norad_id": 67105, "name": "STARLINK-36261", "group": "last-30-days", "lat": 37.86249229079022, "lon": 1.9982366853850664, "alt_km": 317.4021480759966, "timestamp": "2025-12-25T11:37:43.137070+00:00", "meta": {"OBJECT_NAME": "STARLINK-36261", "OBJECT_ID": "2025-299D", "EPOCH": "2025-12-25T04:00:01.998720", "MEAN_MOTION": 15.84128759, "ECCENTRICITY": 0.0001678, "INCLINATION": 42.9967, "RA_OF_ASC_NODE": 240.5047, "ARG_OF_PERICENTER": 276.6222, "MEAN_ANOMALY": 185.0265, "EPHEMERIS_TYPE": 0, "CLASSIFICATION_TYPE": "U", "NORAD_CAT_ID": 67105, "ELEMENT_SET_NO": 999, "REV_AT_EPOCH": 280, "BSTAR": -0.0084382, "MEAN_MOTION_DOT": -0.01703085, "MEAN_MOTION_DDOT": 0}, "tle": {"line1": "1 67105U 25299D   25359.16668980 -.01703085  00000+0 -84382-2 0  9996", "line2": "2 67105  42.9967 240.5047 0001678 276.6222 185.0265 15.84128759  2806"}}, "geometry": {"type": "Point", "coordinates": [1.9982366853850664, 37.86249229079022]}}, {"type": "Feature", "properties": {"norad_id": 67106, "name": "STARLINK-36259", "group": "last-30-days", "lat": 36.56051838189319, "lon": 5.799845270311371, "alt_km": 317.3948139483491, "timestamp": "2025-12-25T11:37:43.137082+00:00", "meta": {"OBJECT_NAME": "STARLINK-36259", "OBJECT_ID": "2025-299E", "EPOCH": "2025-12-25T04:00:01.998720", "MEAN_MOTION": 15.84153754, "ECCENTRICITY": 0.0001541, "INCLINATION": 42.997, "RA_OF_ASC_NODE": 240.4966, "ARG_OF_PERICENTER": 270.0898, "MEAN_ANOMALY": 194.8367, "EPHEMERIS_TYPE": 0, "CLASSIFICATION_TYPE": "U", "NORAD_CAT_ID": 67106, "ELEMENT_SET_NO": 999, "REV_AT_EPOCH": 280, "BSTAR": -0.0085042, "MEAN_MOTION_DOT": -0.01716206, "MEAN_MOTION_DDOT": 0}, "tle": {"line1": "1 67106U 25299E   25359.16668980 -.01716206  00000+0 -85042-2 0  9990", "line2": "2 67106  42.9970 240.4966 0001541 270.0898 194.8367 15.84153754  2800"}}, "geometry": {"type": "Point", "coordinates": [5.799845270311371, 36.56051838189319]}}, {"type": "Feature", "properties": {"norad_id": 67107, "name": "STARLINK-36196", "group": "last-30-days", "lat": 37.25664232071103, "lon": 3.828334330308562, "alt_km": 317.43827340315966, "timestamp": "2025-12-25T11:37:43.137092+00:00", "meta": {"OBJECT_NAME": "STARLINK-36196", "OBJECT_ID": "2025-299F", "EPOCH": "2025-12-25T04:00:01.998720", "MEAN_MOTION": 15.8415625, "ECCENTRICITY": 0.0001607, "INCLINATION": 42.9969, "RA_OF_ASC_NODE": 240.5009, "ARG_OF_PERICENTER": 279.1505, "MEAN_ANOMALY": 184.0499, "EPHEMERIS_TYPE": 0, "CLASSIFICATION_TYPE": "U", "NORAD_CAT_ID": 67107, "ELEMENT_SET_NO": 999, "REV_AT_EPOCH": 280, "BSTAR": -0.0085619, "MEAN_MOTION_DOT": -0.01726461, "MEAN_MOTION_DDOT": 0}, "tle": {"line1": "1 67107U 25299F   25359.16668980 -.01726461  00000+0 -85619-2 0  9995", "line2": "2 67107  42.9969 240.5009 0001607 279.1505 184.0499 15.84156250  2807"}}, "geometry": {"type": "Point", "coordinates": [3.828334330308562, 37.25664232071103]}}, {"type": "Feature", "properties": {"norad_id": 67108, "name": "STARLINK-36208", "group": "last-30-days", "lat": 35.835847841360874, "lon": 7.726096435442861, "alt_km": 317.38634438712234, "timestamp": "2025-12-25T11:37:43.137102+00:00", "meta": {"OBJECT_NAME": "STARLINK-36208", "OBJECT_ID": "2025-299G", "EPOCH": "2025-12-25T04:00:01.998720", "MEAN_MOTION": 15.84162721, "ECCENTRICITY": 0.0001413, "INCLINATION": 42.9971, "RA_OF_ASC_NODE": 240.4921, "ARG_OF_PERICENTER": 269.843, "MEAN_ANOMALY": 196.789, "EPHEMERIS_TYPE": 0, "CLASSIFICATION_TYPE": "U", "NORAD_CAT_ID": 67108, "ELEMENT_SET_NO": 999, "REV_AT_EPOCH": 280, "BSTAR": -0.008497, "MEAN_MOTION_DOT": -0.01715475, "MEAN_MOTION_DDOT": 0}, "tle": {"line1": "1 67108U 25299G   25359.16668980 -.01715475  00000+0 -84970-2 0  9998", "line2": "2 67108  42.9971 240.4921 0001413 269.8430 196.7890 15.84162721  2806"}}, "geometry": {"type": "Point", "coordinates": [7.726096435442861, 35.835847841360874]}}, {"type": "Feature", "properties": {"norad_id": 67109, "name": "STARLINK-35764", "group": "last-30-days", "lat": 35.02079383456211, "lon": 9.762530851624453, "alt_km": 317.634510663388, "timestamp": "2025-12-25T11:37:43.137115+00:00", "meta": {"OBJECT_NAME": "STARLINK-35764", "OBJECT_ID": "2025-299H", "EPOCH": "2025-12-25T04:00:01.998720", "MEAN_MOTION": 15.84165753, "ECCENTRICITY": 0.0001562, "INCLINATION": 42.9971, "RA_OF_ASC_NODE": 240.4875, "ARG_OF_PERICENTER": 274.3876, "MEAN_ANOMALY": 194.0909, "EPHEMERIS_TYPE": 0, "CLASSIFICATION_TYPE": "U", "NORAD_CAT_ID": 67109, "ELEMENT_SET_NO": 999, "REV_AT_EPOCH": 269, "BSTAR": -0.0085013, "MEAN_MOTION_DOT": -0.01716583, "MEAN_MOTION_DDOT": 0}, "tle": {"line1": "1 67109U 25299H   25359.16668980 -.01716583  00000+0 -85013-2 0  9999", "line2": "2 67109  42.9971 240.4875 0001562 274.3876 194.0909 15.84165753  2692"}}, "geometry": {"type": "Point", "coordinates": [9.762530851624453, 35.02079383456211]}}, {"type": "Feature", "properties": {"norad_id": 67110, "name": "STARLINK-35781", "group": "last-30-days", "lat": 33.351641802314724, "lon": 13.58330247723844, "alt_km": 317.9269489762801, "timestamp": "2025-12-25T11:37:43.137125+00:00", "meta": {"OBJECT_NAME": "STARLINK-35781", "OBJECT_ID": "2025-299J", "EPOCH": "2025-12-25T04:00:01.998720", "MEAN_MOTION": 15.84175263, "ECCENTRICITY": 0.0001635, "INCLINATION": 42.9971, "RA_OF_ASC_NODE": 240.4785, "ARG_OF_PERICENTER": 277.6086, "MEAN_ANOMALY": 194.4363, "EPHEMERIS_TYPE": 0, "CLASSIFICATION_TYPE": "U", "NORAD_CAT_ID": 67110, "ELEMENT_SET_NO": 999, "REV_AT_EPOCH": 275, "BSTAR": -0.0085072, "MEAN_MOTION_DOT": -0.01718364, "MEAN_MOTION_DDOT": 0}, "tle": {"line1": "1 67110U 25299J   25359.16668980 -.01718364  00000+0 -85072-2 0  9995", "line2": "2 67110  42.9971 240.4785 0001635 277.6086 194.4363 15.84175263  2756"}}, "geometry": {"type": "Point", "coordinates": [13.58330247723844, 33.351641802314724]}}]}